NORAD_CAT_ID,OBJECT_NAME,OBJECT_TYPE,EPOCH,MEAN_MOTION,ECCENTRICITY,INCLINATION,RA_OF_ASC_NODE,ARG_OF_PERICENTER,MEAN_ANOMALY,BSTAR,MEAN_MOTION_DOT,MEAN_MOTION_DDOT,TLE_LINE0,TLE_LINE1,TLE_LINE2,SEMIMAJOR_AXIS,PERIOD,APOGEE,PERIGEE,DECAYED
55771.0,STARLINK-5591,PAYLOAD,2024-07-10 18:36:26,14.98329258,0.0003029,70.0014,314.6861,272.2649,87.8163,-1.6568e-05,-2.91e-06,0.0,0 STARLINK-5591,1 55771U 23028AG  24192.77531231 -.00000291  00000-0 -16568-4 0  9991,2 55771  70.0014 314.6861 0003029 272.2649  87.8163 14.98329258 75628,6950.195,96.107,574.165,569.955,0.0
55771.0,STARLINK-5591,PAYLOAD,2024-07-11 13:50:03,14.98331311,0.0003106,70.0014,312.6663,274.1138,85.9666,6.4608e-05,6.78e-06,0.0,0 STARLINK-5591,1 55771U 23028AG  24193.57642871  .00000678  00000-0  64608-4 0  9998,2 55771  70.0014 312.6663 0003106 274.1138  85.9666 14.98331311 75749,6950.189,96.107,574.213,569.895,0.0
55771.0,STARLINK-5591,PAYLOAD,2024-07-12 13:52:04,14.98330926,0.0002972,70.0017,310.1429,265.5151,94.5668,8.9572e-05,9.76e-06,0.0,0 STARLINK-5591,1 55771U 23028AG  24194.57782792  .00000976  00000-0  89572-4 0  9994,2 55771  70.0017 310.1429 0002972 265.5151  94.5668 14.98330926 75899,6950.19,96.107,574.121,569.989,0.0
55771.0,STARLINK-5591,PAYLOAD,2024-07-12 18:40:28,14.98332935,0.0003026,70.0015,309.6376,264.1136,95.9678,0.00010421,1.151e-05,0.0,0 STARLINK-5591,1 55771U 23028AG  24194.77810615  .00001151  00000-0  10421-3 0  9994,2 55771  70.0015 309.6376 0003026 264.1136  95.9678 14.98332935 75922,6950.184,96.107,574.152,569.946,0.0
55771.0,STARLINK-5591,PAYLOAD,2024-07-13 13:54:05,14.98334534,0.0003268,70.0006,307.6154,269.8784,90.2001,8.6464e-06,1e-07,0.0,0 STARLINK-5591,1 55771U 23028AG  24195.57922638  .00000010  00000-0  86464-5 0  9997,2 55771  70.0006 307.6154 0003268 269.8784  90.2001 14.98334534 76042,6950.179,96.107,574.315,569.773,0.0
55771.0,STARLINK-5591,PAYLOAD,2024-07-13 17:06:20,14.98339135,0.0002816,70.0012,307.2794,261.2252,98.8588,0.00010634,1.176e-05,0.0,0 STARLINK-5591,1 55771U 23028AG  24195.71274016  .00001176  00000-0  10634-3 0  9991,2 55771  70.0012 307.2794 0002816 261.2252  98.8588 14.98339135 76067,6950.165,96.106,573.987,570.072,0.0
55771.0,STARLINK-5591,PAYLOAD,2024-07-14 01:07:00,14.98341482,0.0003157,70.0011,306.436,269.2527,90.827,7.6645e-05,8.22e-06,0.0,0 STARLINK-5591,1 55771U 23028AG  24196.04653733  .00000822  00000-0  76645-4 0  9997,2 55771  70.0011 306.4360 0003157 269.2527  90.8270 14.98341482 76112,6950.157,96.106,574.217,569.828,0.0
55771.0,STARLINK-5591,PAYLOAD,2024-07-14 12:19:58,14.98325908,0.0002882,70.001,305.2607,269.2839,90.799,1.2495e-05,5.6e-07,0.0,0 STARLINK-5591,1 55771U 23028AG  24196.51386964  .00000056  00000-0  12495-4 0  9990,2 55771  70.0010 305.2607 0002882 269.2839  90.7990 14.98325908 76182,6950.206,96.107,574.074,570.067,0.0
55771.0,STARLINK-5591,PAYLOAD,2024-07-14 13:56:06,14.98329529,0.00034,70.0002,305.0922,269.6741,90.4028,-1.6496e-05,-2.9e-06,0.0,0 STARLINK-5591,1 55771U 23028AG  24196.58062766 -.00000290  00000-0 -16496-4 0  9995,2 55771  70.0002 305.0922 0003400 269.6741  90.4028 14.98329529 76197,6950.194,96.107,574.422,569.696,0.0
55771.0,STARLINK-5591,PAYLOAD,2024-07-14 17:08:22,14.98330931,0.0003038,70.0009,304.7546,267.3458,92.7353,2.1011e-05,1.58e-06,0.0,0 STARLINK-5591,1 55771U 23028AG  24196.71414608  .00000158  00000-0  21011-4 0  9996,2 55771  70.0009 304.7546 0003038 267.3458  92.7353 14.98330931 76217,6950.19,96.107,574.166,569.944,0.0
55771.0,STARLINK-5591,PAYLOAD,2024-07-15 12:21:58,14.98330431,0.0003082,70.0007,302.7348,270.5603,89.5203,7.1958e-05,7.66e-06,0.0,0 STARLINK-5591,1 55771U 23028AG  24197.51526617  .00000766  00000-0  71958-4 0  9999,2 55771  70.0007 302.7348 0003082 270.5603  89.5203 14.98330431 76336,6950.192,96.107,574.199,569.915,0.0
55771.0,STARLINK-5591,PAYLOAD,2024-07-15 13:58:07,14.98331897,0.0003095,70.0008,302.5665,270.4913,89.5891,4.4274e-05,4.35e-06,0.0,0 STARLINK-5591,1 55771U 23028AG  24197.58202602  .00000435  00000-0  44274-4 0  9995,2 55771  70.0008 302.5665 0003095 270.4913  89.5891 14.98331897 76345,6950.187,96.107,574.203,569.901,0.0
55771.0,STARLINK-5591,PAYLOAD,2024-07-15 17:10:22,14.98334003,0.0002946,70.001,302.2299,267.6237,92.4585,0.00015404,1.746e-05,0.0,0 STARLINK-5591,1 55771U 23028AG  24197.71554240  .00001746  00000-0  15404-3 0  9996,2 55771  70.0010 302.2299 0002946 267.6237  92.4585 14.98334003 76366,6950.181,96.107,574.093,569.998,0.0
55771.0,STARLINK-5591,PAYLOAD,2024-07-16 12:23:59,14.98328732,0.000284,70.0013,300.2108,273.5611,86.5223,0.00014231,1.605e-05,0.0,0 STARLINK-5591,1 55771U 23028AG  24198.51666466  .00001605  00000-0  14231-3 0  9990,2 55771  70.0013 300.2108 0002840 273.5611  86.5223 14.98328732 76489,6950.197,96.107,574.036,570.088,0.0
55771.0,STARLINK-5591,PAYLOAD,2024-07-16 14:00:07,14.98329729,0.0002793,70.0014,300.0424,274.8383,85.2457,0.00016558,1.883e-05,0.0,0 STARLINK-5591,1 55771U 23028AG  24198.58342370  .00001883  00000-0  16558-3 0  9994,2 55771  70.0014 300.0424 0002793 274.8383  85.2457 14.98329729 76499,6950.194,96.107,574.0,570.118,0.0
55771.0,STARLINK-5591,PAYLOAD,2024-07-16 17:12:23,14.98320428,0.0002933,70.0015,299.7056,274.4151,85.6673,0.00051229,6.023e-05,0.0,0 STARLINK-5591,1 55771U 23028AG  24198.71694345  .00006023  00000-0  51229-3 0  9996,2 55771  70.0015 299.7056 0002933 274.4151  85.6673 14.98320428 76514,6950.222,96.108,574.126,570.049,0.0
55771.0,STARLINK-5591,PAYLOAD,2024-07-17 12:26:01,14.9832022,0.0002817,70.0027,297.6901,247.6186,112.4675,6.5216e-05,6.85e-06,0.0,0 STARLINK-5591,1 55771U 23028AG  24199.51807376  .00000685  00000-0  65216-4 0  9995,2 55771  70.0027 297.6901 0002817 247.6186 112.4675 14.98320220 76638,6950.223,96.108,574.046,570.13,0.0
55771.0,STARLINK-5591,PAYLOAD,2024-07-17 14:02:09,14.98319321,0.0002565,70.003,297.5221,239.7576,120.3329,-6.8991e-06,-1.75e-06,0.0,0 STARLINK-5591,1 55771U 23028AG  24199.58483642 -.00000175  00000-0 -68991-5 0  9998,2 55771  70.0030 297.5221 0002565 239.7576 120.3329 14.98319321 76646,6950.226,96.108,573.874,570.308,0.0
55771.0,STARLINK-5591,PAYLOAD,2024-07-17 15:38:18,14.98318764,0.000252,70.0029,297.3533,240.5023,119.5884,-2.2244e-05,-3.58e-06,0.0,0 STARLINK-5591,1 55771U 23028AG  24199.65159740 -.00000358  00000-0 -22244-4 0  9998,2 55771  70.0029 297.3533 0002520 240.5023 119.5884 14.98318764 76653,6950.228,96.108,573.844,570.341,0.0
55771.0,STARLINK-5591,PAYLOAD,2024-07-18 12:28:02,14.98333488,0.0002869,70.0006,295.162,266.8337,93.2494,6.5199e-05,6.85e-06,0.0,0 STARLINK-5591,1 55771U 23028AG  24200.51946868  .00000685  00000-0  65199-4 0  9998,2 55771  70.0006 295.1620 0002869 266.8337  93.2494 14.98333488 76785,6950.182,96.107,574.041,570.053,0.0
55771.0,STARLINK-5591,PAYLOAD,2024-07-18 14:04:10,14.98335196,0.0002856,70.0006,294.9935,267.6232,92.46,8.4412e-05,9.14e-06,0.0,0 STARLINK-5591,1 55771U 23028AG  24200.58622738  .00000914  00000-0  84412-4 0  9996,2 55771  70.0006 294.9935 0002856 267.6232  92.4600 14.98335196 76799,6950.177,96.107,574.027,570.057,0.0
55771.0,STARLINK-5591,PAYLOAD,2024-07-18 15:40:17,14.98338025,0.0002839,70.0006,294.8251,268.4695,91.6139,0.00010313,1.138e-05,0.0,0 STARLINK-5591,1 55771U 23028AG  24200.65298535  .00001138  00000-0  10313-3 0  9995,2 55771  70.0006 294.8251 0002839 268.4695  91.6139 14.98338025 76806,6950.168,96.106,574.006,570.06,0.0
55771.0,STARLINK-5591,PAYLOAD,2024-07-19 12:30:02,14.98329456,0.0002804,70.0005,292.6352,263.3503,96.7337,0.00029658,3.447e-05,0.0,0 STARLINK-5591,1 55771U 23028AG  24201.52086660  .00003447  00000-0  29658-3 0  9993,2 55771  70.0005 292.6352 0002804 263.3503  96.7337 14.98329456 76935,6950.195,96.107,574.008,570.111,0.0
55771.0,STARLINK-5591,PAYLOAD,2024-07-19 14:06:10,14.9833045,0.0002836,70.0005,292.4667,266.7569,93.3265,0.00025838,2.991e-05,0.0,0 STARLINK-5591,1 55771U 23028AG  24201.58762703  .00002991  00000-0  25838-3 0  9997,2 55771  70.0005 292.4667 0002836 266.7569  93.3265 14.98330450 76946,6950.191,96.107,574.028,570.085,0.0
55771.0,STARLINK-5591,PAYLOAD,2024-07-19 15:42:18,14.98334872,0.0002894,70.0004,292.3004,266.8081,93.2747,0.00024032,2.776e-05,0.0,0 STARLINK-5591,1 55771U 23028AG  24201.65438439  .00002776  00000-0  24032-3 0  9997,2 55771  70.0004 292.3004 0002894 266.8081  93.2747 14.98334872 76950,6950.178,96.107,574.054,570.031,0.0
55771.0,STARLINK-5591,PAYLOAD,2024-07-20 12:32:04,14.98331293,0.0002855,70.0004,290.111,268.8315,91.2516,4.1687e-05,4.04e-06,0.0,0 STARLINK-5591,1 55771U 23028AG  24202.52226972  .00000404  00000-0  41687-4 0  9993,2 55771  70.0004 290.1110 0002855 268.8315  91.2516 14.98331293 77084,6950.189,96.107,574.038,570.07,0.0
55771.0,STARLINK-5591,PAYLOAD,2024-07-20 14:08:11,14.9833386,0.0002774,70.0004,289.9425,269.4019,90.6822,6.6353e-05,6.99e-06,0.0,0 STARLINK-5591,1 55771U 23028AG  24202.58902727  .00000699  00000-0  66353-4 0  9991,2 55771  70.0004 289.9425 0002774 269.4019  90.6822 14.98333860 77093,6950.181,96.107,573.974,570.118,0.0
55771.0,STARLINK-5591,PAYLOAD,2024-07-21 04:33:21,14.98366636,0.0003087,69.9989,288.4263,270.1178,89.9628,0.00032287,3.765e-05,0.0,0 STARLINK-5591,1 55771U 23028AG  24203.18983203  .00003765  00000-0  32287-3 0  9991,2 55771  69.9989 288.4263 0003087 270.1178  89.9628 14.98366636 77181,6950.08,96.105,574.09,569.799,0.0
55771.0,STARLINK-5591,PAYLOAD,2024-07-21 12:34:03,14.9833415,0.000342,69.9989,287.5847,275.0762,85.0007,-5.4341e-05,-7.41e-06,0.0,0 STARLINK-5591,1 55771U 23028AG  24203.52365588 -.00000741  00000-0 -54341-4 0  9998,2 55771  69.9989 287.5847 0003420 275.0762  85.0007 14.98334150 77233,6950.18,96.107,574.422,569.668,0.0
55771.0,STARLINK-5591,PAYLOAD,2024-07-21 14:10:12,14.98331133,0.0003098,69.9995,287.412,281.5212,78.5599,-4.1039e-05,-5.83e-06,0.0,0 STARLINK-5591,1 55771U 23028AG  24203.59041851 -.00000583  00000-0 -41039-4 0  9993,2 55771  69.9995 287.4120 0003098 281.5212  78.5599 14.98331133 77248,6950.189,96.107,574.208,569.901,0.0
